$$SOE
2461295.500000000, A.D. 2026-Sep-12 00:00:00.0000, 2.552909352635113E+08, -2.035297100378910E+08, -2.709204436448359E+07,
2461302.500000000, A.D. 2026-Sep-19 00:00:00.0000, 2.620504374982280E+08, -1.922862969224612E+08, -2.525399054949754E+07,
2461309.500000000, A.D. 2026-Sep-26 00:00:00.0000, 2.684428407750813E+08, -1.807735830316977E+08, -2.338056548300641E+07,
2461316.500000000, A.D. 2026-Oct-03 00:00:00.0000, 2.744538513271219E+08, -1.690041013986118E+08, -2.147392837891329E+07,
2461323.500000000, A.D. 2026-Oct-10 00:00:00.0000, 2.800696590655785E+08, -1.569913288188901E+08, -1.953637552952531E+07,
2461330.500000000, A.D. 2026-Oct-17 00:00:00.0000, 2.852770176807250E+08, -1.447496711064328E+08, -1.757033673365014E+07,
2461337.500000000, A.D. 2026-Oct-24 00:00:00.0000, 2.900633253363465E+08, -1.322944406138109E+08, -1.557837052191608E+07,
2461344.500000000, A.D. 2026-Oct-31 00:00:00.0000, 2.944167051407738E+08, -1.196418257969186E+08, -1.356315816266554E+07,
2461351.500000000, A.D. 2026-Nov-07 00:00:00.0000, 2.983260847430197E+08, -1.068088525706362E+08, -1.152749646106239E+07,
2461358.500000000, A.D. 2026-Nov-14 00:00:00.0000, 3.017812742173026E+08, -9.381333651383054E+07, -9.474289305963192E+06,
2461365.500000000, A.D. 2026-Nov-21 00:00:00.0000, 3.047730393638729E+08, -8.067382533650479E+07, -7.406537773878165E+06,
2461372.500000000, A.D. 2026-Nov-28 00:00:00.0000, 3.072931683531790E+08, -6.740953486945087E+07, -5.327328999426629E+06,
2461379.500000000, A.D. 2026-Dec-05 00:00:00.0000, 3.093345342651713E+08, -5.404027963578974E+07, -3.239824277207565E+06,
2461386.500000000, A.D. 2026-Dec-12 00:00:00.0000, 3.108911526675495E+08, -4.058639545039301E+07, -1.147246258676242E+06,
2461393.500000000, A.D. 2026-Dec-19 00:00:00.0000, 3.119582313993783E+08, -2.706865475324693E+07, 9.471348046474401E+05,
2461400.500000000, A.D. 2026-Dec-26 00:00:00.0000, 3.125322115677711E+08, -1.350817640171786E+07, 3.040015568407928E+06,
2461407.500000000, A.D. 2027-Jan-02 00:00:00.0000, 3.126107993040850E+08, 7.366890254882653E+04, 5.128074649105119E+06,
2461414.500000000, A.D. 2027-Jan-09 00:00:00.0000, 3.121929878104863E+08, 1.365535647947989E+07, 7.207988037792143E+06,
2461421.500000000, A.D. 2027-Jan-16 00:00:00.0000, 3.112790693083532E+08, 2.721530766111618E+07, 9.276444683596345E+06,
2461428.500000000, A.D. 2027-Jan-23 00:00:00.0000, 3.098706366873446E+08, 4.073199063324229E+07, 1.133016204613833E+07,
2461435.500000000, A.D. 2027-Jan-30 00:00:00.0000, 3.079705749807574E+08, 5.418402081722879E+07, 1.336590140095343E+07,
2461442.500000000, A.D. 2027-Feb-06 00:00:00.0000, 3.055830432121661E+08, 6.755025986932312E+07, 1.538048269453451E+07,
2461449.500000000, A.D. 2027-Feb-13 00:00:00.0000, 3.027134464497998E+08, 8.080991329316780E+07, 1.737079890641209E+07,
2461456.500000000, A.D. 2027-Feb-20 00:00:00.0000, 2.993683961888586E+08, 9.394262472170450E+07, 1.933382990110546E+07,
2461463.500000000, A.D. 2027-Feb-27 00:00:00.0000, 2.955556611111799E+08, 1.069285625818320E+08, 2.126665522640662E+07,
2461470.500000000, A.D. 2027-Mar-06 00:00:00.0000, 2.912841120188898E+08, 1.197485001006670E+08, 2.316646560257857E+07,
2461477.500000000, A.D. 2027-Mar-13 00:00:00.0000, 2.865636602351798E+08, 1.323838898790411E+08, 2.503057330387507E+07,
2461484.500000000, A.D. 2027-Mar-20 00:00:00.0000, 2.814051893340147E+08, 1.448169315224811E+08, 2.685642137999482E+07,
2461491.500000000, A.D. 2027-Mar-27 00:00:00.0000, 2.758204814577729E+08, 1.570306312610329E+08, 2.864159159147688E+07,
2461498.500000000, A.D. 2027-Apr-03 00:00:00.0000, 2.698221395187696E+08, 1.690088531506552E+08, 3.038381099910874E+07,
2461505.500000000, A.D. 2027-Apr-10 00:00:00.0000, 2.634235064479928E+08, 1.807363616792649E+08, 3.208095719085640E+07,
2461512.500000000, A.D. 2027-Apr-17 00:00:00.0000, 2.566385825989150E+08, 1.921988557172076E+08, 3.373106215379417E+07,
2461519.500000000, A.D. 2027-Apr-24 00:00:00.0000, 2.494819424323338E+08, 2.033829938488030E+08, 3.533231481105284E+07,
2461526.500000000, A.D. 2027-May-01 00:00:00.0000, 2.419686517708082E+08, 2.142764113433988E+08, 3.688306225047550E+07,
2461533.500000000, A.D. 2027-May-08 00:00:00.0000, 2.341141868446867E+08, 2.248677298574367E+08, 3.838180974581970E+07,
2461540.500000000, A.D. 2027-May-15 00:00:00.0000, 2.259343544507911E+08, 2.351465612561286E+08, 3.982721986510502E+07,
2461547.500000000, A.D. 2027-May-22 00:00:00.0000, 2.174452123758914E+08, 2.451035034886332E+08, 4.121811069023511E+07,
2461554.500000000, A.D. 2027-May-29 00:00:00.0000, 2.086629940707818E+08, 2.547301276413605E+08, 4.255345282343596E+07,
2461561.500000000, A.D. 2027-Jun-05 00:00:00.0000, 1.996040389816340E+08, 2.640189599230869E+08, 4.383236545989755E+07,
2461568.500000000, A.D. 2027-Jun-12 00:00:00.0000, 1.902847269398525E+08, 2.729634596601233E+08, 4.505411185202356E+07,
2461575.500000000, A.D. 2027-Jun-19 00:00:00.0000, 1.807214165891345E+08, 2.815579930243443E+08, 4.621809422540517E+07,
2461582.500000000, A.D. 2027-Jun-26 00:00:00.0000, 1.709303883428006E+08, 2.897978028833729E+08, 4.732384820206884E+07,
2461589.500000000, A.D. 2027-Jul-03 00:00:00.0000, 1.609277921242308E+08, 2.976789754143881E+08, 4.837103681693381E+07,
2461596.500000000, A.D. 2027-Jul-10 00:00:00.0000, 1.507295999641563E+08, 3.051984041013898E+08, 4.935944421781094E+07,
2461603.500000000, A.D. 2027-Jul-17 00:00:00.0000, 1.403515634586245E+08, 3.123537516612176E+08, 5.028896913200460E+07,
2461610.500000000, A.D. 2027-Jul-24 00:00:00.0000, 1.298091761561094E+08, 3.191434103838702E+08, 5.115961816501790E+07,
2461617.500000000, A.D. 2027-Jul-31 00:00:00.0000, 1.191176411510181E+08, 3.255664616260526E+08, 5.197149899056485E+07,
2461624.500000000, A.D. 2027-Aug-07 00:00:00.0000, 1.082918435096116E+08, 3.316226360619233E+08, 5.272481361246629E+07,
2461631.500000000, A.D. 2027-Aug-14 00:00:00.0000, 9.734632501771678E+07, 3.373122748308632E+08, 5.341985194512373E+07,
2461638.500000000, A.D. 2027-Aug-21 00:00:00.0000, 8.629526162198581E+07, 3.426362885619424E+08, 5.405698542900003E+07,
2461645.500000000, A.D. 2027-Aug-28 00:00:00.0000, 7.515244673537031E+07, 3.475961157893550E+08, 5.463666050874257E+07,
2461652.500000000, A.D. 2027-Sep-04 00:00:00.0000, 6.393127896044485E+07, 3.521936835214746E+08, 5.515939232179606E+07,
2461659.500000000, A.D. 2027-Sep-11 00:00:00.0000, 5.264475255941802E+07, 3.564313695144150E+08, 5.562575869865078E+07,
2461666.500000000, A.D. 2027-Sep-18 00:00:00.0000, 4.130545052655830E+07, 3.603119657754024E+08, 5.603639443142371E+07,
2461673.500000000, A.D. 2027-Sep-25 00:00:00.0000, 2.992554021934035E+07, 3.638386433588451E+08, 5.639198580030285E+07,
2461680.500000000, A.D. 2027-Oct-02 00:00:00.0000, 1.851677135850605E+07, 3.670149185901257E+08, 5.669326536511892E+07,
2461687.500000000, A.D. 2027-Oct-09 00:00:00.0000, 7.090476164654221E+06, 3.698446207901991E+08, 5.694100702707601E+07,
2461694.500000000, A.D. 2027-Oct-16 00:00:00.0000, -4.342428548413388E+06, 3.723318614971978E+08, 5.713602135397251E+07,
2461701.500000000, A.D. 2027-Oct-23 00:00:00.0000, -1.577143729349610E+07, 3.744810052073507E+08, 5.727915114497158E+07,
2461708.500000000, A.D. 2027-Oct-30 00:00:00.0000, -2.718644968404836E+07, 3.762966422546061E+08, 5.737126724826965E+07,
2461715.500000000, A.D. 2027-Nov-06 00:00:00.0000, -3.857776342545915E+07, 3.777835649510695E+08, 5.741326482632346E+07,
2461722.500000000, A.D. 2027-Nov-13 00:00:00.0000, -4.993606869040636E+07, 3.789467448872753E+08, 5.740606007369469E+07,
2461729.500000000, A.D. 2027-Nov-20 00:00:00.0000, -6.125244114780931E+07, 3.797913091651179E+08, 5.735058693355930E+07,
2461736.500000000, A.D. 2027-Nov-27 00:00:00.0000, -7.251833218668447E+07, 3.803225184871116E+08, 5.724779389871775E+07,
2461743.500000000, A.D. 2027-Dec-04 00:00:00.0000, -8.372555849667853E+07, 3.805457479680962E+08, 5.709864114776441E+07,
2461750.500000000, A.D. 2027-Dec-11 00:00:00.0000, -9.486629168044712E+07, 3.804664696463150E+08, 5.690409797682080E+07,
2461757.500000000, A.D. 2027-Dec-18 00:00:00.0000, -1.059330477359116E+08, 3.800902362916673E+08, 5.666514046240653E+07,
2461764.500000000, A.D. 2027-Dec-25 00:00:00.0000, -1.169186763568223E+08, 3.794226664438497E+08, 5.638274932969624E+07,
2461771.500000000, A.D. 2028-Jan-01 00:00:00.0000, -1.278163500986193E+08, 3.784694306279433E+08, 5.605790801169427E+07,
$$EOE